[
    {
        "Altitude(m)": 624790.8380127164,
        "Argument of Periapsis(deg)": 0.0,
        "Eccentricity": 0.0,
        "Inclination(deg)": 60.0,
        "Latitude(deg)": -59.14724580327827,
        "Longitude(deg)": -93.96541304492311,
        "Mean Anomaly(deg)": 278.1818,
        "RAAN(deg)": 80.0,
        "Satellite Name": "Test1 369",
        "Satellite Number": 369,
        "Semi-Major Axis(m)": 6980739.136638005,
        "Time(s)": 0
    },
    {
        "Altitude(m)": 624737.4932697071,
        "Argument of Periapsis(deg)": 0.00010418945913296404,
        "Eccentricity": 0.0,
        "Inclination(deg)": 60.0,
        "Latitude(deg)": -58.99470114865643,
        "Longitude(deg)": -92.84590667193514,
        "Mean Anomaly(deg)": 278.8019061454618,
        "RAAN(deg)": 79.99957995086025,
        "Satellite Name": "Test1 369",
        "Satellite Number": 369,
        "Semi-Major Axis(m)": 6980739.136638005,
        "Time(s)": 10
    }
]